{
  "type": "FeatureCollection",
  "features": [
    {
      "type": "Feature",
      "properties": {
        "norad_id": 35022,
        "name": "COSMOS 2251 DEB",
        "group": "cosmos-2251-debris",
        "lat": -44.6767018526482,
        "lon": -41.27353640290226,
        "alt_km": 721.0251457691866,
        "timestamp": "2025-12-05T19:30:25.962843+00:00",
        "meta_object_name": "COSMOS 2251 DEB",
        "meta_object_id": "1993-036AGK",
        "meta_epoch": "2025-12-02T17:45:34.658208",
        "meta_mean_motion": 14.60763876,
        "meta_eccentricity": 0.00472905,
        "meta_inclination": 74.0262,
        "meta_ra_of_asc_node": 341.0512,
        "meta_arg_of_pericenter": 183.6288,
        "meta_mean_anomaly": 176.4543,
        "meta_ephemeris_type": 0,
        "meta_classification_type": "U",
        "meta_norad_cat_id": 35022,
        "meta_element_set_no": 999,
        "meta_rev_at_epoch": 58997,
        "meta_bstar": 0.00056913021,
        "meta_mean_motion_dot": 2.791e-05,
        "meta_mean_motion_ddot": 0,
        "tle_line1": "1 35022U 93036AGK 25336.73998447  .00002791  00000+0  56913-3 0  9998",
        "tle_line2": "2 35022  74.0262 341.0512 0047290 183.6288 176.4543 14.60763876589975"
      },
      "geometry": {
        "type": "Point",
        "coordinates": [
          -41.27353640290226,
          -44.6767018526482
        ]
      }
    },
    {
      "type": "Feature",
      "properties": {
        "norad_id": 35023,
        "name": "COSMOS 2251 DEB",
        "group": "cosmos-2251-debris",
        "lat": -2.163949097203317,
        "lon": -134.0672460445802,
        "alt_km": 571.3609988424187,
        "timestamp": "2025-12-05T19:30:25.962854+00:00",
        "meta_object_name": "COSMOS 2251 DEB",
        "meta_object_id": "1993-036AGL",
        "meta_epoch": "2025-12-04T21:36:01.410048",
        "meta_mean_motion": 14.9469955,
        "meta_eccentricity": 0.0034324,
        "meta_inclination": 74.0383,
        "meta_ra_of_asc_node": 228.3913,
        "meta_arg_of_pericenter": 307.7916,
        "meta_mean_anomaly": 180.1262,
        "meta_ephemeris_type": 0,
        "meta_classification_type": "U",
        "meta_norad_cat_id": 35023,
        "meta_element_set_no": 999,
        "meta_rev_at_epoch": 88162,
        "meta_bstar": 0.0032511,
        "meta_mean_motion_dot": 0.00035843,
        "meta_mean_motion_ddot": 0,
        "tle_line1": "1 35023U 93036AGL 25338.90001632  .00035843  00000+0  32511-2 0  9992",
        "tle_line2": "2 35023  74.0383 228.3913 0034324 307.7916 180.1262 14.94699550881624"
      },
      "geometry": {
        "type": "Point",
        "coordinates": [
          -134.0672460445802,
          -2.163949097203317
        ]
      }
    },
    {
      "type": "Feature",
      "properties": {
        "norad_id": 35025,
        "name": "COSMOS 2251 DEB",
        "group": "cosmos-2251-debris",
        "lat": -73.31860071693869,
        "lon": -29.463869035820125,
        "alt_km": 654.2930477276741,
        "timestamp": "2025-12-05T19:30:25.962864+00:00",
        "meta_object_name": "COSMOS 2251 DEB",
        "meta_object_id": "1993-036AGN",
        "meta_epoch": "2025-12-03T01:05:05.186688",
        "meta_mean_motion": 14.72628151,
        "meta_eccentricity": 0.00846667,
        "meta_inclination": 73.9382,
        "meta_ra_of_asc_node": 81.9179,
        "meta_arg_of_pericenter": 356.9044,
        "meta_mean_anomaly": 3.1592,
        "meta_ephemeris_type": 0,
        "meta_classification_type": "U",
        "meta_norad_cat_id": 35025,
        "meta_element_set_no": 999,
        "meta_rev_at_epoch": 88500,
        "meta_bstar": 0.00048771001,
        "meta_mean_motion_dot": 3.252e-05,
        "meta_mean_motion_ddot": 0,
        "tle_line1": "1 35025U 93036AGN 25337.04519892  .00003252  00000+0  48771-3 0  9995",
        "tle_line2": "2 35025  73.9382  81.9179 0084666 356.9044   3.1592 14.72628151885003"
      },
      "geometry": {
        "type": "Point",
        "coordinates": [
          -29.463869035820125,
          -73.31860071693869
        ]
      }
    },
    {
      "type": "Feature",
      "properties": {
        "norad_id": 35026,
        "name": "COSMOS 2251 DEB",
        "group": "cosmos-2251-debris",
        "lat": -66.06819463449295,
        "lon": -167.98766766848,
        "alt_km": 776.9365144976391,
        "timestamp": "2025-12-05T19:30:25.962875+00:00",
        "meta_object_name": "COSMOS 2251 DEB",
        "meta_object_id": "1993-036AGP",
        "meta_epoch": "2025-12-04T06:05:20.430816",
        "meta_mean_motion": 14.53615447,
        "meta_eccentricity": 0.008225,
        "meta_inclination": 74.0467,
        "meta_ra_of_asc_node": 334.8227,
        "meta_arg_of_pericenter": 90.6977,
        "meta_mean_anomaly": 285.5237,
        "meta_ephemeris_type": 0,
        "meta_classification_type": "U",
        "meta_norad_cat_id": 35026,
        "meta_element_set_no": 999,
        "meta_rev_at_epoch": 88020,
        "meta_bstar": 0.00011976,
        "meta_mean_motion_dot": 4.94e-06,
        "meta_mean_motion_ddot": 0,
        "tle_line1": "1 35026U 93036AGP 25338.25370869  .00000494  00000+0  11976-3 0  9991",
        "tle_line2": "2 35026  74.0467 334.8227 0082250  90.6977 285.5237 14.53615447880200"
      },
      "geometry": {
        "type": "Point",
        "coordinates": [
          -167.98766766848,
          -66.06819463449295
        ]
      }
    },
    {
      "type": "Feature",
      "properties": {
        "norad_id": 35028,
        "name": "COSMOS 2251 DEB",
        "group": "cosmos-2251-debris",
        "lat": -64.55605847393049,
        "lon": -112.85688446979471,
        "alt_km": 748.0778437295985,
        "timestamp": "2025-12-05T19:30:25.962885+00:00",
        "meta_object_name": "COSMOS 2251 DEB",
        "meta_object_id": "1993-036AGR",
        "meta_epoch": "2025-12-03T07:31:08.250816",
        "meta_mean_motion": 14.56553316,
        "meta_eccentricity": 0.0082193,
        "meta_inclination": 74.0379,
        "meta_ra_of_asc_node": 288.8678,
        "meta_arg_of_pericenter": 65.1818,
        "meta_mean_anomaly": 84.6032,
        "meta_ephemeris_type": 0,
        "meta_classification_type": "U",
        "meta_norad_cat_id": 35028,
        "meta_element_set_no": 999,
        "meta_rev_at_epoch": 88148,
        "meta_bstar": 0.00016513,
        "meta_mean_motion_dot": 7.39e-06,
        "meta_mean_motion_ddot": 0,
        "tle_line1": "1 35028U 93036AGR 25337.31328994  .00000739  00000+0  16513-3 0  9995",
        "tle_line2": "2 35028  74.0379 288.8678 0082193  65.1818  84.6032 14.56553316881480"
      },
      "geometry": {
        "type": "Point",
        "coordinates": [
          -112.85688446979471,
          -64.55605847393049
        ]
      }
    },
    {
      "type": "Feature",
      "properties": {
        "norad_id": 35031,
        "name": "COSMOS 2251 DEB",
        "group": "cosmos-2251-debris",
        "lat": -58.74143914452331,
        "lon": -116.1057874867678,
        "alt_km": 766.3213837525209,
        "timestamp": "2025-12-05T19:30:25.962895+00:00",
        "meta_object_name": "COSMOS 2251 DEB",
        "meta_object_id": "1993-036AGU",
        "meta_epoch": "2025-12-04T03:44:01.634208",
        "meta_mean_motion": 14.38277521,
        "meta_eccentricity": 0.00184824,
        "meta_inclination": 74.0384,
        "meta_ra_of_asc_node": 275.0774,
        "meta_arg_of_pericenter": 10.3454,
        "meta_mean_anomaly": 349.8076,
        "meta_ephemeris_type": 0,
        "meta_classification_type": "U",
        "meta_norad_cat_id": 35031,
        "meta_element_set_no": 999,
        "meta_rev_at_epoch": 65160,
        "meta_bstar": 0.00035811322,
        "meta_mean_motion_dot": 1.065e-05,
        "meta_mean_motion_ddot": 0,
        "tle_line1": "1 35031U 93036AGU 25338.15557447  .00001065  00000+0  35811-3 0  9994",
        "tle_line2": "2 35031  74.0384 275.0774 0018482  10.3454 349.8076 14.38277521651607"
      },
      "geometry": {
        "type": "Point",
        "coordinates": [
          -116.1057874867678,
          -58.74143914452331
        ]
      }
    },
    {
      "type": "Feature",
      "properties": {
        "norad_id": 35032,
        "name": "COSMOS 2251 DEB",
        "group": "cosmos-2251-debris",
        "lat": 14.347761931933213,
        "lon": 24.87216087165641,
        "alt_km": 736.5951120013569,
        "timestamp": "2025-12-05T19:30:25.962906+00:00",
        "meta_object_name": "COSMOS 2251 DEB",
        "meta_object_id": "1993-036AGV",
        "meta_epoch": "2025-12-03T03:23:36.974688",
        "meta_mean_motion": 14.58586985,
        "meta_eccentricity": 0.00689454,
        "meta_inclination": 73.8527,
        "meta_ra_of_asc_node": 25.7636,
        "meta_arg_of_pericenter": 238.5803,
        "meta_mean_anomaly": 154.2077,
        "meta_ephemeris_type": 0,
        "meta_classification_type": "U",
        "meta_norad_cat_id": 35032,
        "meta_element_set_no": 999,
        "meta_rev_at_epoch": 87534,
        "meta_bstar": 0.0014295632,
        "meta_mean_motion_dot": 6.849e-05,
        "meta_mean_motion_ddot": 0,
        "tle_line1": "1 35032U 93036AGV 25337.14140017  .00006849  00000+0  14296-2 0  9992",
        "tle_line2": "2 35032  73.8527  25.7636 0068945 238.5803 154.2077 14.58586985875349"
      },
      "geometry": {
        "type": "Point",
        "coordinates": [
          24.87216087165641,
          14.347761931933213
        ]
      }
    }
  ]
}